IXPE                    
1 49954U 21121A   24081.25001157  .00006828  00000+0  50951-3 0  9990
2 49954   0.2315 325.6120 0009319  54.3909 140.6752 14.96919088124697
